ONEWEB-0183             
1 48219U 21031K   25211.44179972  .00000051  00000+0  10294-3 0  9999
2 48219  87.9063 353.7420 0001762 103.1130 257.0196 13.14503215206056
ONEWEB-0185             
1 48220U 21031L   25211.62018453  .00000248  00000+0  63470-3 0  9999
2 48220  87.9066 353.6723 0001447 105.5420 254.5870 13.14502280206001
ONEWEB-0187             
1 48221U 21031M   25211.44800106  .00000148  00000+0  36467-3 0  9999
2 48221  87.9066 353.7531 0001508  95.9566 264.1735 13.14502137205996
ONEWEB-0192             
1 48222U 21031N   25211.87471179 -.00000155  00000+0 -45330-3 0  9990
2 48222  87.9070 353.6611 0001783  93.2409 266.8924 13.14503508205972
ONEWEB-0219             
1 48223U 21031P   25211.62576236  .00000274  00000+0  70538-3 0  9992
2 48223  87.9071 353.6832 0001507  98.9841 261.1459 13.14505262206134
ONEWEB-0202             
1 48224U 21031Q   25211.37836283  .00000281  00000+0  72277-3 0  9996
2 48224  87.9068 353.7464 0001663  70.7567 289.3742 13.14503964206087
ONEWEB-0204             
1 48225U 21031R   25211.64080193 -.00000035  00000+0 -12990-3 0  9993
2 48225  87.9053 353.6896 0001832 106.1781 253.9550 13.14504739206018
ONEWEB-0205             
1 48226U 21031S   25211.46399668  .00000300  00000+0  77565-3 0  9996
2 48226  87.9069 353.7131 0001596  97.4558 262.6753 13.14501658206008
ONEWEB-0206             
1 48227U 21031T   25211.43703230 -.00000075  00000+0 -23706-3 0  9997
2 48227  87.9065 353.6978 0001739  98.5299 261.6028 13.14504145205957
ONEWEB-0182             
1 48228U 21031U   25211.43229215 -.00000084  00000+0 -26088-3 0  9990
2 48228  87.9065 353.7431 0001814 104.1773 255.9558 13.14503194206169
ONEWEB-0186             
1 48229U 21031V   25211.44337963  .00000031  00000+0  48583-4 0  9997
2 48229  87.9066 353.7021 0001709  96.0310 264.1015 13.14501679206116
ONEWEB-0181             
1 48230U 21031W   25211.42117071 -.00000145  00000+0 -42470-3 0  9999
2 48230  87.9070 353.7787 0001724  92.2420 267.8907 13.14504192205964
ONEWEB-0188             
1 48231U 21031X   25211.45924039  .00000297  00000+0  76646-3 0  9991
2 48231  87.9069 353.7620 0001766  97.8706 262.2624 13.14503882205873
ONEWEB-0220             
1 48232U 21031Y   25211.42277005 -.00000144  00000+0 -42157-3 0  9996
2 48232  87.9062 353.7096 0001577  99.5427 260.5881 13.14502774206138
ONEWEB-0165             
1 48233U 21031Z   25211.45130866  .00000049  00000+0  96735-4 0  9997
2 48233  87.9065 353.7478 0001547  96.0220 264.1086 13.14501901206099
ONEWEB-0199             
1 48234U 21031AA  25211.43544911 -.00000082  00000+0 -25430-3 0  9998
2 48234  87.9066 353.7142 0001960  97.4394 262.6958 13.14504342205996
ONEWEB-0203             
1 48235U 21031AB  25211.42593572 -.00000136  00000+0 -40201-3 0  9998
2 48235  87.9065 353.7190 0001955  89.6007 270.5347 13.14501847206007
