[{"OBJECT_NAME":"ONEWEB-0183","OBJECT_ID":"2021-031K","EPOCH":"2025-07-30T10:36:11.495808","MEAN_MOTION":13.14503215,"ECCENTRICITY":0.0001762,"INCLINATION":87.9063,"RA_OF_ASC_NODE":353.742,"ARG_OF_PERICENTER":103.113,"MEAN_ANOMALY":257.0196,"EPHEMERIS_TYPE":0,"CLASSIFICATION_TYPE":"U","NORAD_CAT_ID":48219,"ELEMENT_SET_NO":999,"REV_AT_EPOCH":20605,"BSTAR":0.00010294,"MEAN_MOTION_DOT":5.1e-7,"MEAN_MOTION_DDOT":0},{"OBJECT_NAME":"ONEWEB-0185","OBJECT_ID":"2021-031L","EPOCH":"2025-07-30T14:53:03.943392","MEAN_MOTION":13.1450228,"ECCENTRICITY":0.0001447,"INCLINATION":87.9066,"RA_OF_ASC_NODE":353.6723,"ARG_OF_PERICENTER":105.542,"MEAN_ANOMALY":254.587,"EPHEMERIS_TYPE":0,"CLASSIFICATION_TYPE":"U","NORAD_CAT_ID":48220,"ELEMENT_SET_NO":999,"REV_AT_EPOCH":20600,"BSTAR":0.0006347,"MEAN_MOTION_DOT":2.48e-6,"MEAN_MOTION_DDOT":0},{"OBJECT_NAME":"ONEWEB-0187","OBJECT_ID":"2021-031M","EPOCH":"2025-07-30T10:45:07.291584","MEAN_MOTION":13.14502137,"ECCENTRICITY":0.0001508,"INCLINATION":87.9066,"RA_OF_ASC_NODE":353.7531,"ARG_OF_PERICENTER":95.9566,"MEAN_ANOMALY":264.1735,"EPHEMERIS_TYPE":0,"CLASSIFICATION_TYPE":"U","NORAD_CAT_ID":48221,"ELEMENT_SET_NO":999,"REV_AT_EPOCH":20599,"BSTAR":0.00036467,"MEAN_MOTION_DOT":1.48e-6,"MEAN_MOTION_DDOT":0},{"OBJECT_NAME":"ONEWEB-0192","OBJECT_ID":"2021-031N","EPOCH":"2025-07-30T20:59:35.098656","MEAN_MOTION":13.14503508,"ECCENTRICITY":0.0001783,"INCLINATION":87.907,"RA_OF_ASC_NODE":353.6611,"ARG_OF_PERICENTER":93.2409,"MEAN_ANOMALY":266.8924,"EPHEMERIS_TYPE":0,"CLASSIFICATION_TYPE":"U","NORAD_CAT_ID":48222,"ELEMENT_SET_NO":999,"REV_AT_EPOCH":20597,"BSTAR":-0.0004533,"MEAN_MOTION_DOT":-1.55e-6,"MEAN_MOTION_DDOT":0},{"OBJECT_NAME":"ONEWEB-0219","OBJECT_ID":"2021-031P","EPOCH":"2025-07-30T15:01:05.867904","MEAN_MOTION":13.14505262,"ECCENTRICITY":0.0001507,"INCLINATION":87.9071,"RA_OF_ASC_NODE":353.6832,"ARG_OF_PERICENTER":98.9841,"MEAN_ANOMALY":261.1459,"EPHEMERIS_TYPE":0,"CLASSIFICATION_TYPE":"U","NORAD_CAT_ID":48223,"ELEMENT_SET_NO":999,"REV_AT_EPOCH":20613,"BSTAR":0.00070538,"MEAN_MOTION_DOT":2.74e-6,"MEAN_MOTION_DDOT":0},{"OBJECT_NAME":"ONEWEB-0202","OBJECT_ID":"2021-031Q","EPOCH":"2025-07-30T09:04:50.548512","MEAN_MOTION":13.14503964,"ECCENTRICITY":0.0001663,"INCLINATION":87.9068,"RA_OF_ASC_NODE":353.7464,"ARG_OF_PERICENTER":70.7567,"MEAN_ANOMALY":289.3742,"EPHEMERIS_TYPE":0,"CLASSIFICATION_TYPE":"U","NORAD_CAT_ID":48224,"ELEMENT_SET_NO":999,"REV_AT_EPOCH":20608,"BSTAR":0.00072277,"MEAN_MOTION_DOT":2.81e-6,"MEAN_MOTION_DDOT":0},{"OBJECT_NAME":"ONEWEB-0204","OBJECT_ID":"2021-031R","EPOCH":"2025-07-30T15:22:45.286752","MEAN_MOTION":13.14504739,"ECCENTRICITY":0.0001832,"INCLINATION":87.9053,"RA_OF_ASC_NODE":353.6896,"ARG_OF_PERICENTER":106.1781,"MEAN_ANOMALY":253.955,"EPHEMERIS_TYPE":0,"CLASSIFICATION_TYPE":"U","NORAD_CAT_ID":48225,"ELEMENT_SET_NO":999,"REV_AT_EPOCH":20601,"BSTAR":-0.0001299,"MEAN_MOTION_DOT":-3.5e-7,"MEAN_MOTION_DDOT":0},{"OBJECT_NAME":"ONEWEB-0205","OBJECT_ID":"2021-031S","EPOCH":"2025-07-30T11:08:09.313152","MEAN_MOTION":13.14501658,"ECCENTRICITY":0.0001596,"INCLINATION":87.9069,"RA_OF_ASC_NODE":353.7131,"ARG_OF_PERICENTER":97.4558,"MEAN_ANOMALY":262.6753,"EPHEMERIS_TYPE":0,"CLASSIFICATION_TYPE":"U","NORAD_CAT_ID":48226,"ELEMENT_SET_NO":999,"REV_AT_EPOCH":20600,"BSTAR":0.00077565,"MEAN_MOTION_DOT":3.0e-6,"MEAN_MOTION_DDOT":0},{"OBJECT_NAME":"ONEWEB-0206","OBJECT_ID":"2021-031T","EPOCH":"2025-07-30T10:29:19.590720","MEAN_MOTION":13.14504145,"ECCENTRICITY":0.0001739,"INCLINATION":87.9065,"RA_OF_ASC_NODE":353.6978,"ARG_OF_PERICENTER":98.5299,"MEAN_ANOMALY":261.6028,"EPHEMERIS_TYPE":0,"CLASSIFICATION_TYPE":"U","NORAD_CAT_ID":48227,"ELEMENT_SET_NO":999,"REV_AT_EPOCH":20595,"BSTAR":-0.00023706,"MEAN_MOTION_DOT":-7.5e-7,"MEAN_MOTION_DDOT":0},{"OBJECT_NAME":"ONEWEB-0182","OBJECT_ID":"2021-031U","EPOCH":"2025-07-30T10:22:30.041760","MEAN_MOTION":13.14503194,"ECCENTRICITY":0.0001814,"INCLINATION":87.9065,"RA_OF_ASC_NODE":353.7431,"ARG_OF_PERICENTER":104.1773,"MEAN_ANOMALY":255.9558,"EPHEMERIS_TYPE":0,"CLASSIFICATION_TYPE":"U","NORAD_CAT_ID":48228,"ELEMENT_SET_NO":999,"REV_AT_EPOCH":20616,"BSTAR":-0.00026088,"MEAN_MOTION_DOT":-8.4e-7,"MEAN_MOTION_DDOT":0},{"OBJECT_NAME":"ONEWEB-0186","OBJECT_ID":"2021-031V","EPOCH":"2025-07-30T10:38:28.000032","MEAN_MOTION":13.14501679,"ECCENTRICITY":0.0001709,"INCLINATION":87.9066,"RA_OF_ASC_NODE":353.7021,"ARG_OF_PERICENTER":96.031,"MEAN_ANOMALY":264.1015,"EPHEMERIS_TYPE":0,"CLASSIFICATION_TYPE":"U","NORAD_CAT_ID":48229,"ELEMENT_SET_NO":999,"REV_AT_EPOCH":20611,"BSTAR":4.8583e-5,"MEAN_MOTION_DOT":3.1e-7,"MEAN_MOTION_DDOT":0},{"OBJECT_NAME":"ONEWEB-0181","OBJECT_ID":"2021-031W","EPOCH":"2025-07-30T10:06:29.149344","MEAN_MOTION":13.14504192,"ECCENTRICITY":0.0001724,"INCLINATION":87.907,"RA_OF_ASC_NODE":353.7787,"ARG_OF_PERICENTER":92.242,"MEAN_ANOMALY":267.8907,"EPHEMERIS_TYPE":0,"CLASSIFICATION_TYPE":"U","NORAD_CAT_ID":48230,"ELEMENT_SET_NO":999,"REV_AT_EPOCH":20596,"BSTAR":-0.0004247,"MEAN_MOTION_DOT":-1.45e-6,"MEAN_MOTION_DDOT":0},{"OBJECT_NAME":"ONEWEB-0188","OBJECT_ID":"2021-031X","EPOCH":"2025-07-30T11:01:18.369696","MEAN_MOTION":13.14503882,"ECCENTRICITY":0.0001766,"INCLINATION":87.9069,"RA_OF_ASC_NODE":353.762,"ARG_OF_PERICENTER":97.8706,"MEAN_ANOMALY":262.2624,"EPHEMERIS_TYPE":0,"CLASSIFICATION_TYPE":"U","NORAD_CAT_ID":48231,"ELEMENT_SET_NO":999,"REV_AT_EPOCH":20587,"BSTAR":0.00076646,"MEAN_MOTION_DOT":2.97e-6,"MEAN_MOTION_DDOT":0},{"OBJECT_NAME":"ONEWEB-0220","OBJECT_ID":"2021-031Y","EPOCH":"2025-07-30T10:08:47.332320","MEAN_MOTION":13.14502774,"ECCENTRICITY":0.0001577,"INCLINATION":87.9062,"RA_OF_ASC_NODE":353.7096,"ARG_OF_PERICENTER":99.5427,"MEAN_ANOMALY":260.5881,"EPHEMERIS_TYPE":0,"CLASSIFICATION_TYPE":"U","NORAD_CAT_ID":48232,"ELEMENT_SET_NO":999,"REV_AT_EPOCH":20613,"BSTAR":-0.00042157,"MEAN_MOTION_DOT":-1.44e-6,"MEAN_MOTION_DDOT":0},{"OBJECT_NAME":"ONEWEB-0165","OBJECT_ID":"2021-031Z","EPOCH":"2025-07-30T10:49:53.068224","MEAN_MOTION":13.14501901,"ECCENTRICITY":0.0001547,"INCLINATION":87.9065,"RA_OF_ASC_NODE":353.7478,"ARG_OF_PERICENTER":96.022,"MEAN_ANOMALY":264.1086,"EPHEMERIS_TYPE":0,"CLASSIFICATION_TYPE":"U","NORAD_CAT_ID":48233,"ELEMENT_SET_NO":999,"REV_AT_EPOCH":20609,"BSTAR":9.6735e-5,"MEAN_MOTION_DOT":4.9e-7,"MEAN_MOTION_DDOT":0},{"OBJECT_NAME":"ONEWEB-0199","OBJECT_ID":"2021-031AA","EPOCH":"2025-07-30T10:27:02.803104","MEAN_MOTION":13.14504342,"ECCENTRICITY":0.000196,"INCLINATION":87.9066,"RA_OF_ASC_NODE":353.7142,"ARG_OF_PERICENTER":97.4394,"MEAN_ANOMALY":262.6958,"EPHEMERIS_TYPE":0,"CLASSIFICATION_TYPE":"U","NORAD_CAT_ID":48234,"ELEMENT_SET_NO":999,"REV_AT_EPOCH":20599,"BSTAR":-0.0002543,"MEAN_MOTION_DOT":-8.2e-7,"MEAN_MOTION_DDOT":0},{"OBJECT_NAME":"ONEWEB-0203","OBJECT_ID":"2021-031AB","EPOCH":"2025-07-30T10:13:20.846208","MEAN_MOTION":13.14501847,"ECCENTRICITY":0.0001955,"INCLINATION":87.9065,"RA_OF_ASC_NODE":353.719,"ARG_OF_PERICENTER":89.6007,"MEAN_ANOMALY":270.5347,"EPHEMERIS_TYPE":0,"CLASSIFICATION_TYPE":"U","NORAD_CAT_ID":48235,"ELEMENT_SET_NO":999,"REV_AT_EPOCH":20600,"BSTAR":-0.00040201,"MEAN_MOTION_DOT":-1.36e-6,"MEAN_MOTION_DDOT":0}]
